#dP2023  2 19 12  0  0.00000000      96 __u+U ITR00 EXT  IAC
## 2250  43200.00000000   900.00000000 59994 0.5000000000000
+  120   C06C07C08C09C10C11C12C13C14C16C19C20C21C22C23C24C25
+        C26C27C28C29C30C32C33C34C35C36C37C38C39C40C41C42C43
+        C44C45C46E01E02E03E04E05E07E08E09E10E11E12E13E14E15
+        E18E19E21E24E25E26E27E30E31E33E34E36G01G02G03G04G05
+        G06G07G08G09G10G11G12G13G14G15G16G17G18G19G20G21G22
+        G23G24G25G26G27G28G29G30G31G32J02J03J04R01R02R03R04
+        R05R07R08R09R11R12R13R14R15R16R17R18R19R20R21R22R24
+        R25  0  0  0  0  0  0  0  0  0  0  0  0  0  0  0  0
++        11 11  9 11 10  8 15 10  9 11 11  8 10 10 10 11  9
++        11  9  8 11 10  8  9 10 12 10 10 10  9 12  8  8  9
++         8 10  9  9  8  9  7  8  8  9  8  7  8  8  8  9  9
++         8  8  8  7  8  9  7  9  8  9  9  7  8  7  7  9  9
++         8  7  7  8  8  7  7  7  8  9  0  9  8 10  7  8  9
++         8  7  7  7  8  9 10  7  7  8  9 10 10  9  9  8  8
++         9  9  8 10  6  8  9  9 12  9 10  7  9 10  9  8 11
++        10  0  0  0  0  0  0  0  0  0  0  0  0  0  0  0  0
%c M  cc GPS ccc cccc cccc cccc cccc ccccc ccccc ccccc ccccc
%c cc cc ccc ccc cccc cccc cccc cccc ccccc ccccc ccccc ccccc
%f  0.0000000  0.000000000  0.00000000000  0.000000000000000
%f  0.0000000  0.000000000  0.00000000000  0.000000000000000
%i    0    0    0    0      0      0      0      0         0
%i    0    0    0    0      0      0      0      0         0
/* IAC                                ULTRA-RAPID PREDICTION
/* S/V CLOCKS ARE ALIGNED TO GNSS TIME                      
/* G:C1WC2W R:C1PC2P E:C1XC5X C:C2IC6I J:C1CC2S             
/* PCV:IGS20_2247 OL/AL:FES2004  NONE     YN ORB:CoN CLK:CoN
*  2023 02 19 13  0  0.00000000
PC06 -10679.791313  22850.440044 -33802.397439   -191.616741
PC07 -15842.164015  38060.854292   8445.516275     91.223288
PC08    647.715403  35497.791251  22891.972812    525.113534
PC09   -880.708857  24512.885560 -33863.720952    738.722492
PC10  -9640.790668  38229.559417  14521.215673      7.916089
PC11   1345.166686 -15285.157163 -23240.734728   -111.808070
PC12  20355.062112 -10374.026085 -15985.646349    461.641120
PC13   4552.995372  37964.708860  18226.158093    211.507631
PC14   5443.710336 -25114.670777  10968.809918    498.365746
PC16 -12555.356217  21722.235507 -33711.683591    158.441780
PC19   2375.100811  21044.142624 -18134.463841   -894.587413
PC20 -11297.823076  25233.041402  -3673.453105    716.490398
PC21  19223.934873 -14484.974676 -14117.276996   -910.386185
PC22  15377.912269   4489.322710 -22847.813355   -624.881708
PC23 -19580.200078 -15466.571630 -12493.830998   -879.076764
PC24   4462.709296 -19715.850580  19206.155522   -390.972838
PC25 -12215.516374 -24784.637093   3805.529861     74.656411
PC26  16067.068456  -4587.289021  22335.611729    -80.993269
PC27 -25788.719932   6064.532523   8779.738969     99.120497
PC28 -26234.962173  -5441.502653  -7803.535601     72.256638
PC29  10989.231188  14381.881102  21233.395599     83.194184
PC30 -11166.130731  14907.789664  20782.310122      1.105932
PC32 -19134.267694  14517.931522  14219.985912   -618.028487
PC33  -2457.045220 -21120.968999  18089.059058   -872.481424
PC34   9756.478017 -15224.346059 -21258.279849    109.597644
PC35  25907.497849   5271.338750   8855.839978    677.841541
PC36  11174.951347  25182.883848  -4456.822561   -614.819183
PC37 -16819.956188   2773.260044 -22085.369161   -817.657330
PC38  -6365.038281  30908.359015  28069.762922     59.842528
PC39 -19349.943828  20225.934337 -31563.667992     -1.874382
PC40 -22918.058286  34575.638188   6826.337987    -15.520510
PC41 -15122.810059  -5154.920205  22935.790799   -630.721050
PC42  12031.760247 -25072.235392   2497.496418   -828.268617
PC43 -10107.218712 -14740.727089 -21446.392046      7.953559
PC44  25595.988317  -6975.144340  -8608.401340     20.301124
PC45  19571.974278  15192.320394  12857.150888    -62.443219
PC46  -2939.594665  20845.168412 -18348.944148    -34.517191
PE01  14768.792642 -14428.416121  21198.724440   -600.413970
PE02 -14628.765809  14922.274304 -20983.005413     21.739227
PE03 -25283.663594  15326.984948  -1337.621053   -651.576888
PE04  11331.971475 -20746.418197  17820.476079    -61.690830
PE05 -24680.857375    746.834333  16330.451347    -93.844044
PE07   9545.624086  14120.035748 -24194.541720    -24.100932
PE08 -11501.168347  20679.562147 -17778.004266    -38.640606
PE09  -9298.649562 -14104.163627  24309.576890   -841.677725
PE10  -9581.775656 -20107.221952 -19499.070580   -513.527462
PE11 -19079.073546 -19662.814119 -11236.158818    947.741452
PE12    597.571723 -17553.746689 -23828.620906   -428.147045
PE13  18439.992013  19770.826506  12045.482487     -0.377797
PE14 -19523.356923  12805.112210   5152.284357    146.638572
PE15   -935.917633  17331.261580  23984.642247     -2.199832
PE18  20222.914842 -20860.778624 -14242.695007   -372.630523
PE19  26210.961046 -13690.860997  -1225.231123  -3196.259140
PE21  16306.474664   6212.614590  23903.053057   -513.070360
PE24  -8197.631005 -25517.351079 -12551.071872  -1122.839974
PE25 -16262.425224  -6561.638201 -23846.083586   -599.717569
PE26  26797.399427  10035.893327  -7555.790260     22.993528
PE27   8720.372379  25014.311938  13219.245566   -516.101898
PE30  -4473.182675  28702.342520  -5761.752137  -1255.200442
PE31   3920.392397 -28880.347303   5136.151635   -516.463634
PE33  19595.733503  -4685.803142 -21671.431193   -451.565251
PE34 -19479.177366   4848.037207  21751.979421    -30.913120
PE36 -26793.333308 -10598.514262   6818.667455    -14.764442
PG01 -22347.665242 -14627.037236   1224.748295    210.816923
PG02  23820.151510  10725.922770  -3395.201637   -619.788616
PG03 -12652.266411 -11971.835536  19963.914990   -361.215374
PG04 -20505.284390  -3504.167871  16586.434123    -24.131238
PG05   6027.153283  24034.001719  -9568.752655   -116.512807
PG06  -7542.329990  12560.409282  22218.995750    574.118993
PG07 -22711.585598  -4078.295976 -13136.120119    238.086435
PG08 -10593.491729 -11500.823128 -21567.157278   -109.246419
PG09 -24563.199445   6432.590826   7799.788672   -215.325145
PG10  11197.441332 -18798.580344 -14656.031053    -25.367576
PG11   5866.712873  19361.396313  17237.952975   -108.468745
PG12  11185.525866  14531.237694  18969.579694   -342.231344
PG13   2016.191501  15128.589127 -21898.247162    478.589361
PG14 -13346.462734  16195.104548 -16197.899414    -23.410560
PG15  12388.892311  10779.764003 -21357.376216     14.817785
PG16  -1580.932564 -25116.016180  -8009.372306   -519.368263
PG17 -22219.486074  13552.375869   5989.083761    700.997997
PG18  20741.616737    714.838628 -16654.551592   -147.181138
PG19 -15210.639014  15906.433925  14437.339520    279.789188
PG20   1014.752292  26575.605959   2109.409650    449.745476
PG21 -20240.102001 -16419.226112  -6421.678099    154.073575
PG22  11364.537756 -17181.823086  17106.088945    430.181724
PG23  14588.746212  -7292.475874 -20927.571232      6.835312
PG24  21812.100018  15201.000342  -3628.591852    -80.278378
PG25  14947.824202   3761.879298  21338.281633    421.407497
PG26   4801.734258 -25133.243813   6305.912935    241.608885
PG27   1440.466352 -16617.132369 -20805.828849     98.695306
PG28   9305.105305 -12059.894915  21724.815945     18.498271
PG29  24300.881272  -1968.610648  10582.565083   -586.960341
PG30 -15309.261062   7607.082012 -20288.693291   -529.775417
PG31   6355.814087 -14075.652220  21402.768583   -209.663438
PG32  19627.484409 -15961.319674   7910.299642   -400.889376
PJ02 -22099.958822  29134.194777 -16374.851613     -0.950889
PJ03 -28915.000392  22940.378090  25432.349474      0.333969
PJ04 -30387.590463  28965.153289  11232.706713     94.245989
PR01   9692.702899 -20799.666740  11156.987407     23.326953
PR02  -4382.162713 -11166.404680  22549.388329    -23.251277
PR03 -15684.354332   4232.529389  19736.111500     72.782374
PR04 -18090.773813  16916.992450   6162.963476    176.405152
PR05 -10800.170628  20435.752345 -10804.269073    108.018079
PR07  15951.041302  -4904.139888 -19229.088311     50.232253
PR08  17940.830753 -17125.125066  -5828.802419    -69.524532
PR09  11855.615747  21702.259095   6109.290955    104.947451
PR11   8189.241005  -8587.940020  22585.666306     -6.735328
PR12  -2549.712766 -22607.312694  11532.900318     25.113006
PR13 -11005.193722 -22586.851366  -4408.385894    -32.190148
PR14 -13563.635467  -8584.867404 -19824.558662     24.359109
PR15  -7834.662428   9657.867398 -22259.453236     90.957579
PR16   2610.623983  22418.681192 -11856.293576     11.463500
PR17 -25103.063004  -4432.665263    158.483086    606.223383
PR18 -19804.793044   3454.375853  15754.977277     67.591459
PR19  -5913.430721   9180.459754  23055.117647   -222.467261
PR20  15586.429261  11085.857475  16860.761328    -87.990551
PR21  25159.858122   3829.369120  -1865.644094   -374.528102
PR22  19355.419599  -3436.369746 -16215.171906     71.632605
PR24 -16463.286736 -10793.803963 -16198.016248    147.960039
PR25  24853.103559   5776.740559    178.955126     55.528969
EOF
